[{"OBJECT_NAME":"STARLINK-5919","OBJECT_ID":"2023-037P","EPOCH":"2026-03-09T21:53:55.511520","MEAN_MOTION":14.9830823,"ECCENTRICITY":0.00026639,"INCLINATION":70.0036,"RA_OF_ASC_NODE":303.7784,"ARG_OF_PERICENTER":210.5626,"MEAN_ANOMALY":149.5378,"EPHEMERIS_TYPE":0,"CLASSIFICATION_TYPE":"U","NORAD_CAT_ID":55927,"ELEMENT_SET_NO":999,"REV_AT_EPOCH":16352,"BSTAR":-4.2850414e-5,"MEAN_MOTION_DOT":-6.04e-6,"MEAN_MOTION_DDOT":0},{"OBJECT_NAME":"TIROS 5","OBJECT_ID":"1962-025A","EPOCH":"2026-03-09T18:19:03.462528","MEAN_MOTION":14.60548226,"ECCENTRICITY":0.0188246,"INCLINATION":58.0885,"RA_OF_ASC_NODE":225.1954,"ARG_OF_PERICENTER":128.0206,"MEAN_ANOMALY":233.7985,"EPHEMERIS_TYPE":0,"CLASSIFICATION_TYPE":"U","NORAD_CAT_ID":309,"ELEMENT_SET_NO":999,"REV_AT_EPOCH":36730,"BSTAR":0.00024813109,"MEAN_MOTION_DOT":1.341e-5,"MEAN_MOTION_DDOT":0}]
